GLOBALSTAR M068         
1 32266U 07048D   25109.44134027 -.00000110  00000+0 -33279-4 0  9991
2 32266  51.9859 121.3326 0000976  13.0688 134.5411 12.62820874810428
GLOBALSTAR M079         
1 37188U 10054A   25109.04799490 -.00000089  00000+0  80042-4 0  9991
2 37188  52.0050 319.8163 0000976 108.7125  50.7365 12.62273167669664
GLOBALSTAR M074         
1 37189U 10054B   25109.52212966 -.00000078  00000+0  14453-3 0  9993
2 37189  52.0030 317.7060 0000667  94.5146 299.1575 12.62274211669728
GLOBALSTAR M076         
1 37190U 10054C   25109.02000672 -.00000074  00000+0  16677-3 0  9995
2 37190  52.0042 319.3972 0000697 113.8947  39.0712 12.62261169669665
GLOBALSTAR M077         
1 37191U 10054D   25107.89729493 -.00000082  00000+0  12293-3 0  9997
2 37191  52.0068 279.6554 0000793 108.4959  38.7938 12.62273405669536
GLOBALSTAR M075         
1 37192U 10054E   25108.77142359 -.00000073  00000+0  17058-3 0  9990
2 37192  51.9977   2.4439 0000677  80.8279 321.2457 12.62263707668873
GLOBALSTAR M073         
1 37193U 10054F   25109.48279417 -.00000083  00000+0  11471-3 0  9990
2 37193  52.0053 274.0541 0000775 115.2323 279.4898 12.62270594670478
GLOBALSTAR M083         
1 37739U 11033A   25108.55668693 -.00000065  00000+0  21727-3 0  9994
2 37739  51.9853 225.6843 0000773 114.0195 331.0540 12.62263037639680
GLOBALSTAR M088         
1 37740U 11033B   25108.54847831 -.00000102  00000+0  11495-4 0  9992
2 37740  51.9707 131.2492 0000296  95.8345  72.8787 12.62265595635157
GLOBALSTAR M091         
1 37741U 11033C   25109.18040238 -.00000101  00000+0  14301-4 0  9998
2 37741  51.9981  92.7732 0000579  78.1652  22.6911 12.62267109635996
GLOBALSTAR M085         
1 37742U 11033D   25109.25801722 -.00000094  00000+0  55851-4 0  9996
2 37742  51.9882  43.6268 0000742  77.0995  76.8255 12.62267300636745
GLOBALSTAR M081         
1 37743U 11033E   25109.20400483 -.00000090  00000+0  78252-4 0  9997
2 37743  51.9975  46.5421 0000643  90.8232  57.2751 12.62262790636774
GLOBALSTAR M089         
1 37744U 11033F   25109.08485184 -.00000065  00000+0  21530-3 0  9993
2 37744  51.9961   1.1458 0000473  82.9026  64.1035 12.62268920637472
GLOBALSTAR M084         
1 38040U 11080A   25109.73177986 -.00000076  00000+0  15597-3 0  9993
2 38040  52.0005 226.4330 0000389 143.4108   4.2185 12.62265104615562
GLOBALSTAR M080         
1 38041U 11080B   25107.80853491 -.00000077  00000+0  14999-3 0  9998
2 38041  52.0056 233.8725 0000671 158.9161   5.7450 12.62291920615165
GLOBALSTAR M082         
1 38042U 11080C   25108.69256134 -.00000073  00000+0  17132-3 0  9996
2 38042  52.0063 186.6225 0000707  91.3594  71.9342 12.62265425616150
GLOBALSTAR M092         
1 38043U 11080D   25108.90135439 -.00000053  00000+0  28452-3 0  9990
2 38043  52.0078 276.3598 0000711 104.0594  48.8973 12.62263283614672
GLOBALSTAR M090         
1 38044U 11080E   25109.24619457 -.00000084  00000+0  11006-3 0  9997
2 38044  51.9870 178.8215 0000563 112.7739 287.3583 12.62269394616213
GLOBALSTAR M086         
1 38045U 11080F   25109.19064090 -.00000088  00000+0  87401-4 0  9996
2 38045  51.9885 179.5371 0001149 170.8710 217.1085 12.62269497616218
GLOBALSTAR M097         
1 39072U 13005A   25109.13187749 -.00000116  00000+0 -68497-4 0  9994
2 39072  52.0029  94.1998 0000451 101.1796 258.9122 12.62271708563432
GLOBALSTAR M093         
1 39073U 13005B   25109.42196633 -.00000097  00000+0  36080-4 0  9999
2 39073  51.9799  86.7116 0000459  89.5607 270.5312 12.62263821563463
GLOBALSTAR M094         
1 39074U 13005C   25109.73884455 -.00000083  00000+0  11330-3 0  9995
2 39074  51.9989   0.0737 0000976  99.7657 260.3320 12.62269870565014
GLOBALSTAR M096         
1 39075U 13005D   25109.19782100 -.00000093  00000+0  60099-4 0  9998
2 39075  52.0087  50.1871 0000772  84.4909 275.6046 12.62270203564190
GLOBALSTAR M078         
1 39076U 13005E   25109.48776018 -.00000110  00000+0 -32135-4 0  9993
2 39076  51.9847 133.8944 0001126  61.1091 298.9888 12.62261487562713
GLOBALSTAR M095         
1 39077U 13005F   25109.43517027 -.00000104  00000+0 -25732-5 0  9991
2 39077  51.9774 131.2817 0000751  87.9888 272.1065 12.62269233562715
GLOBALSTAR M087         
1 52888U 22064A   25109.46579630 -.00000068  00000+0  19943-3 0  9995
2 52888  51.9787 272.5914 0000933 102.5218 257.5752 12.62271135137952
